{
"type": "FeatureCollection",
"name": "stream_network",
"crs": { "type": "name", "properties": { "name": "urn:ogc:def:crs:OGC:1.3:CRS84" } },
"features": [
{ "type": "Feature", "properties": { "nhd_objectid": 1080962, "permanent_identifier": "{E30F2C72-6C8B-40A9-BE18-FC1F1F6E4BAC}", "gnis_name": null, "nhd_lengthkm": 0.1103912, "reachcode": "18060006004452", "flowdir": 1, "ftype": 460, "fcode": 46007, "feature_type": "Stream/River", "hydro_category": "Ephemeral", "innetwork": 1, "mainpath": 0, "visibilityfilter": 0, "globalid": "{1C50A357-7D02-4FBC-BB67-335A111271D9}", "clipped_length_m": 87.486935743237353 }, "geometry": { "type": "MultiLineString", "coordinates": [ [ [ -120.671651428651515, 35.312040076487705 ], [ -120.671618414141591, 35.31191085363578 ], [ -120.67158781412212, 35.31176212028987 ], [ -120.671580214062871, 35.311613320440856 ], [ -120.671534480519071, 35.311258653587281 ] ] ] } },
{ "type": "Feature", "properties": { "nhd_objectid": 1081353, "permanent_identifier": "{297997D6-72CD-477F-BBFF-8EAB1320FADF}", "gnis_name": null, "nhd_lengthkm": 0.26331642, "reachcode": "18060006023577", "flowdir": 1, "ftype": 460, "fcode": 46007, "feature_type": "Stream/River", "hydro_category": "Ephemeral", "innetwork": 1, "mainpath": 0, "visibilityfilter": 0, "globalid": "{F765A57D-F552-4DD8-8C45-9B62B03903AE}", "clipped_length_m": 264.27675539969795 }, "geometry": { "type": "MultiLineString", "coordinates": [ [ [ -120.65763186091813, 35.316452840320487 ], [ -120.657988780677442, 35.31661940261521 ], [ -120.65827431565242, 35.316714580430222 ], [ -120.65879779782729, 35.316714580430222 ], [ -120.659154716546027, 35.316643197079472 ], [ -120.659487841377199, 35.316500429339982 ], [ -120.659725788577063, 35.316238688537169 ], [ -120.660013479538179, 35.315881921882543 ] ] ] } },
{ "type": "Feature", "properties": { "nhd_objectid": 1081372, "permanent_identifier": "{B3442F87-D4EA-4185-A92F-A7096155AD0C}", "gnis_name": null, "nhd_lengthkm": 0.45207112, "reachcode": "18060006023583", "flowdir": 1, "ftype": 460, "fcode": 46007, "feature_type": "Stream/River", "hydro_category": "Ephemeral", "innetwork": 1, "mainpath": 0, "visibilityfilter": 0, "globalid": "{FC052F46-59DF-4F90-B8FA-0135C378A717}", "clipped_length_m": 455.5497292255971 }, "geometry": { "type": "MultiLineString", "coordinates": [ [ [ -120.6505410649537, 35.304055847105495 ], [ -120.650874189784886, 35.303936874881543 ], [ -120.651231109544142, 35.303841694768614 ], [ -120.651635617078554, 35.30379410679312 ], [ -120.652135304325284, 35.303794106793113 ], [ -120.652682580387747, 35.303770311945669 ], [ -120.653301241234431, 35.303698928210558 ], [ -120.653777132512573, 35.303603748666831 ], [ -120.654205436015587, 35.303460981688914 ], [ -120.654871684637428, 35.3032944186225 ], [ -120.655371371884186, 35.303127857760728 ] ] ] } },
{ "type": "Feature", "properties": { "nhd_objectid": 1975378, "permanent_identifier": "{9F560DAA-01F2-4A07-9833-659D88F54A9A}", "gnis_name": "Brizzolara Creek", "nhd_lengthkm": 0.04286342, "reachcode": "18060006001345", "flowdir": 1, "ftype": 460, "fcode": 46003, "feature_type": "Stream/River", "hydro_category": "Intermittent", "innetwork": 1, "mainpath": 0, "visibilityfilter": 100000, "globalid": "{0B529D93-0E3C-406C-84B9-1F7576D5DFD8}", "clipped_length_m": 42.962186715141733 }, "geometry": { "type": "MultiLineString", "coordinates": [ [ [ -120.656023277787412, 35.308313654955313 ], [ -120.656397211315678, 35.308077121378531 ] ] ] } },
{ "type": "Feature", "properties": { "nhd_objectid": 2668035, "permanent_identifier": "{52A83F28-9F0B-4AF4-AD56-76867BC9B3FE}", "gnis_name": null, "nhd_lengthkm": 0.14635988, "reachcode": "18060006004453", "flowdir": 1, "ftype": 460, "fcode": 46007, "feature_type": "Stream/River", "hydro_category": "Ephemeral", "innetwork": 1, "mainpath": 0, "visibilityfilter": 24000, "globalid": "{74772B00-984A-436E-91E4-6E9C4FCAB08A}", "clipped_length_m": 146.366980483714 }, "geometry": { "type": "MultiLineString", "coordinates": [ [ [ -120.665720613128528, 35.311167054258611 ], [ -120.665789280038368, 35.311079320790107 ], [ -120.665896080432802, 35.310957254571171 ], [ -120.665964812896291, 35.310854120661546 ], [ -120.666041079865408, 35.310755053837781 ], [ -120.666140280200594, 35.310655854432078 ], [ -120.666247012960298, 35.310587254203497 ], [ -120.666415013393674, 35.31049185435338 ], [ -120.66683596552501, 35.310247217284498 ] ] ] } },
{ "type": "Feature", "properties": { "nhd_objectid": 2891343, "permanent_identifier": "{D785E935-620F-4170-B64D-952692C4F4EC}", "gnis_name": null, "nhd_lengthkm": 0.56435625, "reachcode": "18060006023571", "flowdir": 1, "ftype": 460, "fcode": 46007, "feature_type": "Stream/River", "hydro_category": "Ephemeral", "innetwork": 1, "mainpath": 0, "visibilityfilter": 0, "globalid": "{33D5688A-8F92-4BCB-A18B-B02CE414E5D0}", "clipped_length_m": 258.17872591117447 }, "geometry": { "type": "MultiLineString", "coordinates": [ [ [ -120.666768993644823, 35.315453464442271 ], [ -120.667054528619801, 35.315120340650509 ], [ -120.667057642503309, 35.315114112877289 ] ], [ [ -120.667080564481793, 35.312452183062028 ], [ -120.667030733691689, 35.312169808142407 ], [ -120.666935555019862, 35.311765300151812 ], [ -120.666935555019862, 35.311360791836456 ], [ -120.666959349947945, 35.311027668170098 ], [ -120.667054528619801, 35.310718337640971 ], [ -120.667053499531818, 35.310559983407892 ] ] ] } },
{ "type": "Feature", "properties": { "nhd_objectid": 3985518, "permanent_identifier": "28000082", "gnis_name": null, "nhd_lengthkm": 0.41050931, "reachcode": "18060006004452", "flowdir": 1, "ftype": 460, "fcode": 46007, "feature_type": "Stream/River", "hydro_category": "Ephemeral", "innetwork": 1, "mainpath": 0, "visibilityfilter": 0, "globalid": "{29679F60-4C81-11E1-BCF4-0021280458E6}", "clipped_length_m": 5.8929413522725573 }, "geometry": { "type": "MultiLineString", "coordinates": [ [ [ -120.671703535335737, 35.312287729009753 ], [ -120.671694680070175, 35.312235120200107 ] ] ] } },
{ "type": "Feature", "properties": { "nhd_objectid": 3985564, "permanent_identifier": "28000072", "gnis_name": null, "nhd_lengthkm": 0.17122598, "reachcode": "18060006004440", "flowdir": 1, "ftype": 460, "fcode": 46007, "feature_type": "Stream/River", "hydro_category": "Ephemeral", "innetwork": 1, "mainpath": 0, "visibilityfilter": 0, "globalid": "{47164B3C-4C99-11E1-BCF4-0021280458E6}", "clipped_length_m": 170.21068456442401 }, "geometry": { "type": "MultiLineString", "coordinates": [ [ [ -120.660013479538179, 35.315881921882543 ], [ -120.660013479538179, 35.315710321481419 ], [ -120.66001361272653, 35.315580521415065 ], [ -120.660044079557679, 35.315374521669675 ], [ -120.660105079814116, 35.315233454902703 ], [ -120.660173813318153, 35.315088521268628 ], [ -120.660280479483717, 35.314981655057842 ], [ -120.660379678778355, 35.31487105452814 ], [ -120.660456078935766, 35.314737521478179 ], [ -120.660540013598833, 35.314607854851999 ], [ -120.660624012774989, 35.314474321367477 ] ] ] } },
{ "type": "Feature", "properties": { "nhd_objectid": 4657685, "permanent_identifier": "{A205AAE1-85B7-4689-A4B9-1BBFF85F797D}", "gnis_name": null, "nhd_lengthkm": 0.22094005, "reachcode": "18060006023964", "flowdir": 1, "ftype": 460, "fcode": 46007, "feature_type": "Stream/River", "hydro_category": "Ephemeral", "innetwork": 1, "mainpath": 0, "visibilityfilter": 0, "globalid": "{8C402B90-2324-4DDF-ADC9-5335658F9F23}", "clipped_length_m": 220.6887612028371 }, "geometry": { "type": "MultiLineString", "coordinates": [ [ [ -120.662142369134486, 35.31593617883987 ], [ -120.66199960060645, 35.315745822963819 ], [ -120.661785449375216, 35.315507876215172 ], [ -120.661547503215871, 35.315412697829146 ], [ -120.661261968240865, 35.315269930464581 ], [ -120.661000227153465, 35.315103367088611 ], [ -120.660809869809768, 35.314889215977267 ], [ -120.660624012774989, 35.314474321367477 ] ] ] } },
{ "type": "Feature", "properties": { "nhd_objectid": 5551686, "permanent_identifier": "{A1754033-2E5E-482D-BA25-295A2A962C13}", "gnis_name": null, "nhd_lengthkm": 0.44494319, "reachcode": "18060006023611", "flowdir": 1, "ftype": 460, "fcode": 46007, "feature_type": "Stream/River", "hydro_category": "Ephemeral", "innetwork": 1, "mainpath": 0, "visibilityfilter": 0, "globalid": "{E3499B37-6E37-4FCC-B375-C9F0E7D4F982}", "clipped_length_m": 448.31780192904057 }, "geometry": { "type": "MultiLineString", "coordinates": [ [ [ -120.650136556378754, 35.30170018013731 ], [ -120.650564859881783, 35.301509824727596 ], [ -120.650921779641052, 35.301367056602672 ], [ -120.651278698359803, 35.301248082123593 ], [ -120.651754590678479, 35.301176698710911 ], [ -120.652230484037688, 35.301129109168016 ], [ -120.652587401715891, 35.301129109168002 ], [ -120.652896732659499, 35.301200493471853 ], [ -120.6532774452658, 35.301248082123593 ], [ -120.653658159953167, 35.301271876863545 ], [ -120.653991284784354, 35.301271876863552 ], [ -120.654467176062482, 35.301248082123593 ], [ -120.654871684637428, 35.301105315235262 ] ] ] } },
{ "type": "Feature", "properties": { "nhd_objectid": 6446240, "permanent_identifier": "{41389E73-3992-42A7-9A85-D32A3AC338C6}", "gnis_name": null, "nhd_lengthkm": 0.15837092, "reachcode": "18060006023693", "flowdir": 1, "ftype": 460, "fcode": 46007, "feature_type": "Stream/River", "hydro_category": "Ephemeral", "innetwork": 1, "mainpath": 0, "visibilityfilter": 0, "globalid": "{EB5B897D-F100-4D0C-9483-45099A481690}", "clipped_length_m": 157.23088933257756 }, "geometry": { "type": "MultiLineString", "coordinates": [ [ [ -120.665269931904504, 35.312526727874911 ], [ -120.665484084176285, 35.312003246872969 ], [ -120.665650645551338, 35.311646327377787 ], [ -120.665720613128528, 35.311167054258611 ] ] ] } },
{ "type": "Feature", "properties": { "nhd_objectid": 6669290, "permanent_identifier": "{ADF92EE2-3347-4702-8976-8A3455ADD398}", "gnis_name": null, "nhd_lengthkm": 0.26943147, "reachcode": "18060006023575", "flowdir": 1, "ftype": 460, "fcode": 46007, "feature_type": "Stream/River", "hydro_category": "Ephemeral", "innetwork": 1, "mainpath": 0, "visibilityfilter": 0, "globalid": "{D0DCE109-0D39-4C90-86FF-673E0C981F3C}", "clipped_length_m": 267.51012060092114 }, "geometry": { "type": "MultiLineString", "coordinates": [ [ [ -120.663556721014032, 35.317785337563549 ], [ -120.663437748454626, 35.317571185912577 ], [ -120.66331877381414, 35.317238061504455 ], [ -120.663176006326651, 35.316833552541418 ], [ -120.663057032726712, 35.316548017482397 ], [ -120.662961855095418, 35.316167303917325 ], [ -120.662961855095418, 35.315810384967406 ], [ -120.663128416470485, 35.315477260098604 ] ] ] } },
{ "type": "Feature", "properties": { "nhd_objectid": 6893074, "permanent_identifier": "28000122", "gnis_name": "Brizzolara Creek", "nhd_lengthkm": 0.7350594, "reachcode": "18060006001345", "flowdir": 1, "ftype": 460, "fcode": 46003, "feature_type": "Stream/River", "hydro_category": "Intermittent", "innetwork": 1, "mainpath": 0, "visibilityfilter": 100000, "globalid": "{B68191DF-4C79-11E1-BCF4-0021280458E6}", "clipped_length_m": 738.26581395309665 }, "geometry": { "type": "MultiLineString", "coordinates": [ [ [ -120.660555411418756, 35.305342054386799 ], [ -120.660730812128875, 35.305315321041491 ], [ -120.66088341162073, 35.305292453927706 ], [ -120.661058878925004, 35.305239054279411 ], [ -120.661234411782928, 35.305166520372978 ], [ -120.661440412512519, 35.305082654289443 ], [ -120.661860011949884, 35.304952920386818 ], [ -120.662066079273629, 35.30491485392816 ], [ -120.662287212487016, 35.304876654132258 ], [ -120.662523878789727, 35.30480412075012 ], [ -120.662737411943851, 35.304750720779516 ], [ -120.662928079366623, 35.304689720706449 ], [ -120.663103678818715, 35.304624920550502 ], [ -120.663263879410323, 35.304537120544751 ], [ -120.663439412268247, 35.304392253511374 ], [ -120.663630211838807, 35.304262453964462 ], [ -120.663790279242122, 35.304159453331877 ], [ -120.664004078772905, 35.304087053476515 ], [ -120.664278678777663, 35.304003120038253 ], [ -120.664530478604675, 35.303926720416733 ], [ -120.664690679196326, 35.303819920131325 ], [ -120.664797479590732, 35.30368265367477 ], [ -120.664950079082587, 35.303491919947824 ], [ -120.665056879476992, 35.303430919774783 ], [ -120.665224679087345, 35.303392720127519 ], [ -120.66540787963919, 35.30337745351077 ], [ -120.665591012556362, 35.30337365341525 ], [ -120.665804612304655, 35.303354653783998 ], [ -120.666010478805376, 35.303320320435233 ], [ -120.666254879396192, 35.303240120067144 ], [ -120.666384478927824, 35.303156253685124 ], [ -120.666498879381464, 35.303034253636241 ], [ -120.666575279538918, 35.302938853370954 ], [ -120.666621013082718, 35.302809120276748 ], [ -120.666674412239374, 35.302675653083114 ], [ -120.666750812396813, 35.30261831995206 ], [ -120.666880412968979, 35.302584119614011 ], [ -120.666987278917034, 35.302557319969615 ], [ -120.667124612736757, 35.302484853292853 ], [ -120.667269478981012, 35.302404720032172 ], [ -120.667414479454166, 35.302343719888697 ] ] ] } },
{ "type": "Feature", "properties": { "nhd_objectid": 6915889, "permanent_identifier": "{0AF70824-23D6-4890-91E2-4EDFFB11208E}", "gnis_name": null, "nhd_lengthkm": 0.50200478, "reachcode": "18060006023610", "flowdir": 1, "ftype": 460, "fcode": 46007, "feature_type": "Stream/River", "hydro_category": "Ephemeral", "innetwork": 1, "mainpath": 0, "visibilityfilter": 0, "globalid": "{B262C26C-1FD0-4850-9D41-578B415FA5A3}", "clipped_length_m": 328.82099785428926 }, "geometry": { "type": "MultiLineString", "coordinates": [ [ [ -120.649332532392108, 35.296097037719719 ], [ -120.649407891333908, 35.296048355157204 ], [ -120.649522106572576, 35.296034077392513 ], [ -120.650787979474288, 35.296034077392505 ], [ -120.652924735506488, 35.296067389625087 ] ] ] } },
{ "type": "Feature", "properties": { "nhd_objectid": 7340329, "permanent_identifier": "{7E8D5865-40F4-4342-B4F1-D7AB1B0DF206}", "gnis_name": "Brizzolara Creek", "nhd_lengthkm": 0.31739406, "reachcode": "18060006001345", "flowdir": 1, "ftype": 460, "fcode": 46003, "feature_type": "Stream/River", "hydro_category": "Intermittent", "innetwork": 1, "mainpath": 0, "visibilityfilter": 100000, "globalid": "{CF84DACA-8213-48C9-A601-F216EB47A3E7}", "clipped_length_m": 317.09687824380268 }, "geometry": { "type": "MultiLineString", "coordinates": [ [ [ -120.653757211491993, 35.310426921289064 ], [ -120.65383347846111, 35.310346854483157 ], [ -120.653925011102345, 35.310270521139095 ], [ -120.654009011319033, 35.310171454449723 ], [ -120.654154011792158, 35.310034054420257 ], [ -120.654314211343262, 35.309912054553202 ], [ -120.654375278193882, 35.309873854569517 ], [ -120.654497277666238, 35.309801321422057 ], [ -120.654566011170274, 35.309748054664716 ], [ -120.654657478257889, 35.309671721604715 ], [ -120.654726211761897, 35.309614454567793 ], [ -120.654833011115812, 35.309500054533146 ], [ -120.654924611391721, 35.309435121521844 ], [ -120.654993211707406, 35.309355054583335 ], [ -120.655023678538555, 35.309274921334158 ], [ -120.655054278558026, 35.309183321457361 ], [ -120.655100077655476, 35.309110854771447 ], [ -120.655168811159513, 35.309038454252274 ], [ -120.655275478365596, 35.308946854956922 ], [ -120.655374677660234, 35.308859254940465 ], [ -120.655458611282739, 35.30875992159519 ], [ -120.655535011440207, 35.308695054221722 ], [ -120.655603678350047, 35.308660854754066 ], [ -120.655718077763183, 35.308592121218737 ], [ -120.65581727809834, 35.308546320906707 ], [ -120.655893611661625, 35.308485321148019 ], [ -120.655969810996041, 35.308401320945691 ], [ -120.656023277787412, 35.308313654955313 ] ] ] } },
{ "type": "Feature", "properties": { "nhd_objectid": 7362703, "permanent_identifier": "28000112", "gnis_name": null, "nhd_lengthkm": 0.19762119, "reachcode": "18060006004458", "flowdir": 1, "ftype": 460, "fcode": 46007, "feature_type": "Stream/River", "hydro_category": "Ephemeral", "innetwork": 1, "mainpath": 0, "visibilityfilter": 24000, "globalid": "{A6EC307F-4C8B-11E1-BCF4-0021280458E6}", "clipped_length_m": 196.36042094870052 }, "geometry": { "type": "MultiLineString", "coordinates": [ [ [ -120.671565013944374, 35.309919654129907 ], [ -120.671557413885154, 35.309820453699665 ], [ -120.671526880459822, 35.309740320062353 ], [ -120.671488613786934, 35.309629720007592 ], [ -120.67143541441277, 35.309480920481512 ], [ -120.671374214373827, 35.309355053734258 ], [ -120.67134368094851, 35.309252053641295 ], [ -120.671298013998864, 35.309129920131653 ], [ -120.671214013782205, 35.309004119919095 ], [ -120.671053814231101, 35.308805720087982 ], [ -120.671008080687301, 35.308706519989997 ], [ -120.670954613895915, 35.308588320518943 ], [ -120.670939413777447, 35.30849292000967 ], [ -120.670901280292867, 35.308386120657126 ], [ -120.67084781350151, 35.308267919868854 ] ] ] } },
{ "type": "Feature", "properties": { "nhd_objectid": 8458016, "permanent_identifier": "{4929EF19-0204-474E-86D9-02AB6F55C247}", "gnis_name": null, "nhd_lengthkm": 0.28896252, "reachcode": "18060006023702", "flowdir": 1, "ftype": 460, "fcode": 46007, "feature_type": "Stream/River", "hydro_category": "Ephemeral", "innetwork": 1, "mainpath": 0, "visibilityfilter": 0, "globalid": "{65310C72-D85A-4074-9058-067807D11F5F}", "clipped_length_m": 71.996456928698237 }, "geometry": { "type": "MultiLineString", "coordinates": [ [ [ -120.649330913577288, 35.298324748840024 ], [ -120.649351334157018, 35.298321345385737 ], [ -120.64970825287574, 35.298202372373353 ], [ -120.65006517263501, 35.298083400035274 ] ] ] } },
{ "type": "Feature", "properties": { "nhd_objectid": 8480574, "permanent_identifier": "{AE1132BA-3074-4BDB-9046-FFD981EC55D1}", "gnis_name": null, "nhd_lengthkm": 0.13245762, "reachcode": "18060006023569", "flowdir": 1, "ftype": 460, "fcode": 46007, "feature_type": "Stream/River", "hydro_category": "Ephemeral", "innetwork": 1, "mainpath": 0, "visibilityfilter": 0, "globalid": "{78605446-949A-4A50-8368-C5D27D6E640A}", "clipped_length_m": 132.61576175222811 }, "geometry": { "type": "MultiLineString", "coordinates": [ [ [ -120.670496735299253, 35.311998590447885 ], [ -120.670520529186845, 35.311879617167968 ], [ -120.670544324114928, 35.311832027976827 ], [ -120.67063950278677, 35.311736850359587 ], [ -120.670829860130453, 35.311546493091015 ], [ -120.671044011361715, 35.31140372484554 ], [ -120.671258162592949, 35.311332341902009 ], [ -120.671534480519071, 35.311258653587281 ] ] ] } },
{ "type": "Feature", "properties": { "nhd_objectid": 9129127, "permanent_identifier": "{F66CF3F2-C431-4DBB-9ED5-0FEFFB00B1BD}", "gnis_name": null, "nhd_lengthkm": 0.06317007, "reachcode": "18060006004442", "flowdir": 1, "ftype": 460, "fcode": 46007, "feature_type": "Stream/River", "hydro_category": "Ephemeral", "innetwork": 1, "mainpath": 0, "visibilityfilter": 0, "globalid": "{FECB5C92-7645-4243-9F1C-FDF1213320D4}", "clipped_length_m": 63.058869851963507 }, "geometry": { "type": "MultiLineString", "coordinates": [ [ [ -120.676806681365207, 35.308645520352073 ], [ -120.676814281424456, 35.308573053184404 ], [ -120.676905880659845, 35.30849292000967 ], [ -120.677005014400848, 35.308412920068996 ], [ -120.677096481488448, 35.308344253404329 ], [ -120.67721868178387, 35.308206852818721 ] ] ] } },
{ "type": "Feature", "properties": { "nhd_objectid": 9577354, "permanent_identifier": "{F6F5A218-4759-4919-B6DC-C1B71271F6F9}", "gnis_name": null, "nhd_lengthkm": 0.42422828, "reachcode": "18060006023568", "flowdir": 1, "ftype": 460, "fcode": 46007, "feature_type": "Stream/River", "hydro_category": "Ephemeral", "innetwork": 1, "mainpath": 0, "visibilityfilter": 0, "globalid": "{94A3493F-B8E6-4D97-85D1-C80ED7F1313F}", "clipped_length_m": 6.4701247051755821 }, "geometry": { "type": "MultiLineString", "coordinates": [ [ [ -120.671664487112224, 35.312287916268374 ], [ -120.671694680070175, 35.312235120200107 ] ] ] } },
{ "type": "Feature", "properties": { "nhd_objectid": 10027039, "permanent_identifier": "{E3A0CF15-DD22-4B92-A07B-A21509FE3E7C}", "gnis_name": null, "nhd_lengthkm": 0.34957501, "reachcode": "18060006023572", "flowdir": 1, "ftype": 460, "fcode": 46007, "feature_type": "Stream/River", "hydro_category": "Ephemeral", "innetwork": 1, "mainpath": 0, "visibilityfilter": 0, "globalid": "{92FCCD6F-78FC-46C4-BBCB-B5EE4AB92EBC}", "clipped_length_m": 347.57092463098036 }, "geometry": { "type": "MultiLineString", "coordinates": [ [ [ -120.665365110576332, 35.315382081676496 ], [ -120.665293726832616, 35.315191724496309 ], [ -120.665079575601354, 35.314906188735016 ], [ -120.664841629442009, 35.314620652814668 ], [ -120.664675068066956, 35.314287529837991 ], [ -120.664651272098325, 35.313811636399478 ], [ -120.664675067026437, 35.313430922689335 ], [ -120.664770245698264, 35.313192977620815 ], [ -120.665079575601354, 35.312836058281057 ], [ -120.665269931904504, 35.312526727874911 ] ] ] } },
{ "type": "Feature", "properties": { "nhd_objectid": 12046556, "permanent_identifier": "{C737F57B-8F69-470B-B2C0-9CF3C6FB22D8}", "gnis_name": null, "nhd_lengthkm": 0.22791032, "reachcode": "18060006023576", "flowdir": 1, "ftype": 460, "fcode": 46007, "feature_type": "Stream/River", "hydro_category": "Ephemeral", "innetwork": 1, "mainpath": 0, "visibilityfilter": 0, "globalid": "{8410C11E-E5CB-48AF-826F-76AE6F1E3F91}", "clipped_length_m": 229.72308552671589 }, "geometry": { "type": "MultiLineString", "coordinates": [ [ [ -120.658512261811751, 35.313716459413548 ], [ -120.658916770386696, 35.313716459413548 ], [ -120.659345073889682, 35.313716459413548 ], [ -120.659797171280289, 35.313645075963827 ], [ -120.66017788388659, 35.313573691601952 ], [ -120.660558599614475, 35.313454718091641 ], [ -120.660967279689615, 35.313333721051464 ] ] ] } },
{ "type": "Feature", "properties": { "nhd_objectid": 12069618, "permanent_identifier": "{8CDE8885-5D74-4419-9861-56C1950D692E}", "gnis_name": null, "nhd_lengthkm": 0.38727135, "reachcode": "18060006004453", "flowdir": 1, "ftype": 460, "fcode": 46007, "feature_type": "Stream/River", "hydro_category": "Ephemeral", "innetwork": 1, "mainpath": 0, "visibilityfilter": 24000, "globalid": "{73FB3898-B78B-4DEF-9B4D-3E8C71DADC3C}", "clipped_length_m": 387.3338759835014 }, "geometry": { "type": "MultiLineString", "coordinates": [ [ [ -120.668640858893625, 35.310320816514903 ], [ -120.668880683216528, 35.310515525801399 ], [ -120.669551692280734, 35.310986659029908 ], [ -120.669994270867647, 35.311257917417031 ], [ -120.670536788568768, 35.311250779027759 ], [ -120.670708109345668, 35.311136564713287 ], [ -120.671200657489692, 35.310444141224913 ], [ -120.67145764021582, 35.310158605685416 ], [ -120.671565013944374, 35.309919654129907 ] ] ] } },
{ "type": "Feature", "properties": { "nhd_objectid": 12496097, "permanent_identifier": "{651BF46B-91DF-4C38-B7DF-29157059FB11}", "gnis_name": null, "nhd_lengthkm": 0.68638433, "reachcode": "18060006023566", "flowdir": 1, "ftype": 460, "fcode": 46007, "feature_type": "Stream/River", "hydro_category": "Ephemeral", "innetwork": 1, "mainpath": 0, "visibilityfilter": 0, "globalid": "{14F27A33-339E-4BC8-A4D7-E6DAF93E7BAF}", "clipped_length_m": 501.35473393266625 }, "geometry": { "type": "MultiLineString", "coordinates": [ [ [ -120.679088291939692, 35.31227931461337 ], [ -120.678951835546115, 35.312074629224476 ], [ -120.678809067018108, 35.311741505950664 ], [ -120.678809067018108, 35.3113845861496 ], [ -120.678832861946177, 35.311027667320964 ], [ -120.678803261879722, 35.310659237274088 ], [ -120.678779467992186, 35.310492676290565 ], [ -120.678731878135977, 35.310445087132493 ], [ -120.678660494392233, 35.310302318641284 ], [ -120.678589110648488, 35.310159551596328 ], [ -120.678589110648488, 35.310040578158798 ], [ -120.678517726904744, 35.309874015901393 ], [ -120.678422548232888, 35.309755042893052 ], [ -120.678279780745399, 35.309659864530133 ], [ -120.678184601033024, 35.309588480896771 ], [ -120.678065628473618, 35.309445712592002 ], [ -120.677881078349373, 35.309100303566289 ], [ -120.677762103708886, 35.308838562591013 ], [ -120.677619336221397, 35.30855302732801 ], [ -120.677452774846344, 35.30838646455507 ], [ -120.67721868178387, 35.308206852818721 ] ] ] } },
{ "type": "Feature", "properties": { "nhd_objectid": 12928199, "permanent_identifier": "28000140", "gnis_name": null, "nhd_lengthkm": 0.568, "reachcode": "18060006004458", "flowdir": 1, "ftype": 460, "fcode": 46007, "feature_type": "Stream/River", "hydro_category": "Ephemeral", "innetwork": 1, "mainpath": 0, "visibilityfilter": 24000, "globalid": "{E64BCEAE-4C71-11E1-BCF4-0021280458E6}", "clipped_length_m": 565.44706379203797 }, "geometry": { "type": "MultiLineString", "coordinates": [ [ [ -120.670168879731506, 35.306791653880005 ], [ -120.670176479790754, 35.306707719850898 ], [ -120.670184013255835, 35.306635253494797 ], [ -120.670161213078075, 35.306581853883642 ], [ -120.670130613058618, 35.306478853656373 ], [ -120.670077213901948, 35.306372053343274 ], [ -120.670001013526999, 35.306200453145962 ], [ -120.669909413251062, 35.30600965317624 ], [ -120.669810079727569, 35.305815053624819 ], [ -120.66974908051165, 35.305651120156554 ], [ -120.66968048019595, 35.30548691971952 ], [ -120.669604080038496, 35.305349653543644 ], [ -120.669550813029616, 35.305151320325834 ], [ -120.669474479466359, 35.30505225331158 ], [ -120.669367680112472, 35.304888053357487 ], [ -120.669230412886918, 35.304716453409277 ], [ -120.669070080147478, 35.304544853097113 ], [ -120.668970879812306, 35.304392120191245 ], [ -120.668864079417872, 35.304239520317502 ], [ -120.668703879866797, 35.304014520235704 ], [ -120.668543612681006, 35.303869653115761 ], [ -120.668490280118476, 35.303778053063077 ], [ -120.668406413090139, 35.303633120132858 ], [ -120.668284279388914, 35.30346525307661 ], [ -120.66815448007479, 35.3032783197865 ], [ -120.668070679640593, 35.303171453257953 ], [ -120.667963812652019, 35.303053319579291 ], [ -120.667887479088719, 35.302946453602736 ], [ -120.667788279794095, 35.302854853354013 ], [ -120.667651012568527, 35.302790053426968 ], [ -120.667529013096171, 35.30269091983223 ], [ -120.667506079730103, 35.302614519820835 ], [ -120.667490813017452, 35.302492519804282 ], [ -120.667414479454166, 35.302404720032172 ], [ -120.667414479454166, 35.302343719888697 ] ] ] } },
{ "type": "Feature", "properties": { "nhd_objectid": 14089830, "permanent_identifier": "{2E3EE5BC-DB1D-499B-95B5-639213A79DD3}", "gnis_name": null, "nhd_lengthkm": 0.28794972, "reachcode": "18060006004457", "flowdir": 1, "ftype": 460, "fcode": 46007, "feature_type": "Stream/River", "hydro_category": "Ephemeral", "innetwork": 1, "mainpath": 0, "visibilityfilter": 0, "globalid": "{CC8FE3C6-D7F9-4AAF-A3FE-A061E6B5CF2E}", "clipped_length_m": 287.43512956255358 }, "geometry": { "type": "MultiLineString", "coordinates": [ [ [ -120.666730286826109, 35.308337966436611 ], [ -120.666901991559968, 35.308397121145546 ], [ -120.667282705206802, 35.308646965568009 ], [ -120.667895417321461, 35.309116908170289 ], [ -120.668640858893625, 35.310320816514903 ] ] ] } },
{ "type": "Feature", "properties": { "nhd_objectid": 14291823, "permanent_identifier": "{C56AC44B-F8B3-4A6A-924F-48154249D2DF}", "gnis_name": null, "nhd_lengthkm": 0.57448455, "reachcode": "18060006023580", "flowdir": 1, "ftype": 460, "fcode": 46007, "feature_type": "Stream/River", "hydro_category": "Ephemeral", "innetwork": 1, "mainpath": 0, "visibilityfilter": 0, "globalid": "{0428F4DD-F146-430B-BE25-6991244E025A}", "clipped_length_m": 576.99041465469668 }, "geometry": { "type": "MultiLineString", "coordinates": [ [ [ -120.650636243625556, 35.306102183923521 ], [ -120.651183519687947, 35.306102183923528 ], [ -120.651730795750382, 35.306125978934361 ], [ -120.65220668910959, 35.306125978934361 ], [ -120.652730170243899, 35.30626874630466 ], [ -120.65308708896265, 35.306459102406556 ], [ -120.653396419906258, 35.306578075167323 ], [ -120.653777132512573, 35.306887405394782 ], [ -120.654134053312362, 35.30705396785757 ], [ -120.654514765918705, 35.307220530826612 ], [ -120.655038248093547, 35.307434681013191 ], [ -120.655442755627931, 35.307625038617374 ], [ -120.655680702827794, 35.307862984780478 ], [ -120.656023278827931, 35.308313654955313 ] ] ] } },
{ "type": "Feature", "properties": { "nhd_objectid": 14291827, "permanent_identifier": "{0710E2D5-1CDD-496F-BFE8-1DD922A9D59A}", "gnis_name": null, "nhd_lengthkm": 0.33696659, "reachcode": "18060006023578", "flowdir": 1, "ftype": 460, "fcode": 46007, "feature_type": "Stream/River", "hydro_category": "Ephemeral", "innetwork": 1, "mainpath": 0, "visibilityfilter": 0, "globalid": "{D7E712DD-E227-4A49-B14D-6465102AB328}", "clipped_length_m": 336.24032866538516 }, "geometry": { "type": "MultiLineString", "coordinates": [ [ [ -120.658583645555495, 35.312264987797455 ], [ -120.658988154130441, 35.312074630922623 ], [ -120.659321278961599, 35.311765300151812 ], [ -120.659630607824141, 35.311455971594384 ], [ -120.659987527583411, 35.31121802411235 ], [ -120.660273063598964, 35.310980078477719 ], [ -120.660487214830198, 35.310480392234567 ], [ -120.660511008717762, 35.310194855973954 ], [ -120.660653776205251, 35.309909320403634 ] ] ] } },
{ "type": "Feature", "properties": { "nhd_objectid": 14314235, "permanent_identifier": "{8B9D9631-D5A8-4168-B31F-978B644C5A25}", "gnis_name": null, "nhd_lengthkm": 0.13472027, "reachcode": "18060006004453", "flowdir": 1, "ftype": 460, "fcode": 46007, "feature_type": "Stream/River", "hydro_category": "Ephemeral", "innetwork": 1, "mainpath": 0, "visibilityfilter": 24000, "globalid": "{8BA854B4-666C-4118-BA18-67FE9E4AC271}", "clipped_length_m": 134.90336551710098 }, "geometry": { "type": "MultiLineString", "coordinates": [ [ [ -120.667520188328567, 35.309574258166506 ], [ -120.667545805231455, 35.309551843138458 ], [ -120.667802786917051, 35.309723165358648 ], [ -120.66815970667632, 35.309930178056547 ], [ -120.668640858893625, 35.310320816514903 ] ] ] } },
{ "type": "Feature", "properties": { "nhd_objectid": 14516893, "permanent_identifier": "{65DD2B0F-9732-4272-9902-B8EBC6C919AD}", "gnis_name": "Brizzolara Creek", "nhd_lengthkm": 0.36544059, "reachcode": "18060006001345", "flowdir": 1, "ftype": 460, "fcode": 46003, "feature_type": "Stream/River", "hydro_category": "Intermittent", "innetwork": 1, "mainpath": 0, "visibilityfilter": 100000, "globalid": "{3F0685B7-F5C6-49B1-B405-B5197EF38D21}", "clipped_length_m": 364.32851484175819 }, "geometry": { "type": "MultiLineString", "coordinates": [ [ [ -120.651689611420579, 35.313089522212756 ], [ -120.651758278330419, 35.312994255223401 ], [ -120.651834477664863, 35.31292172232672 ], [ -120.651903277763054, 35.312868455076938 ], [ -120.652025278275957, 35.312784455180754 ], [ -120.652383878497403, 35.312628055343666 ], [ -120.65247541113861, 35.312559455089549 ], [ -120.652567011414547, 35.312444921667662 ], [ -120.652620411611764, 35.312341922112708 ], [ -120.652643211789496, 35.312235121898262 ], [ -120.652643211789496, 35.312120722173546 ], [ -120.652643411571987, 35.312013722130239 ], [ -120.652704277599582, 35.311918521801275 ], [ -120.652757611202631, 35.311811654798376 ], [ -120.652856811537816, 35.311704854732845 ], [ -120.652933211695228, 35.311598055375406 ], [ -120.6530400110491, 35.311445454659079 ], [ -120.653116278018217, 35.311319521342405 ], [ -120.653200278234905, 35.31120892174863 ], [ -120.653215478353403, 35.311125055136159 ], [ -120.653246078372902, 35.311014455276549 ], [ -120.653307077588792, 35.310934321972951 ], [ -120.653383411152078, 35.310831321343549 ], [ -120.653475011428014, 35.310743521280571 ], [ -120.65355881082165, 35.310659655034669 ], [ -120.653650411097559, 35.310602454927526 ], [ -120.653703811294776, 35.310510921935375 ], [ -120.653757211491993, 35.310426921289064 ] ] ] } },
{ "type": "Feature", "properties": { "nhd_objectid": 14539603, "permanent_identifier": "{56F2FADA-CE27-4C3D-9C7A-622AAB695D83}", "gnis_name": null, "nhd_lengthkm": 0.67848152, "reachcode": "18060006023569", "flowdir": 1, "ftype": 460, "fcode": 46007, "feature_type": "Stream/River", "hydro_category": "Ephemeral", "innetwork": 1, "mainpath": 0, "visibilityfilter": 0, "globalid": "{ED78C2FF-880C-418B-AEE6-7035D8732CD1}", "clipped_length_m": 61.97285033116755 }, "geometry": { "type": "MultiLineString", "coordinates": [ [ [ -120.666816582460456, 35.316714579581152 ], [ -120.667006938763606, 35.31657181196767 ], [ -120.667055248230014, 35.316541069444909 ] ], [ [ -120.670457377145524, 35.312293705052717 ], [ -120.670472940371155, 35.312188946652547 ], [ -120.670496735299253, 35.311998590447885 ] ] ] } },
{ "type": "Feature", "properties": { "nhd_objectid": 14741303, "permanent_identifier": "28000038", "gnis_name": null, "nhd_lengthkm": 0.41085972, "reachcode": "18060006004440", "flowdir": 1, "ftype": 460, "fcode": 46007, "feature_type": "Stream/River", "hydro_category": "Ephemeral", "innetwork": 1, "mainpath": 0, "visibilityfilter": 0, "globalid": "{01D74DE1-4C7D-11E1-BCF4-0021280458E6}", "clipped_length_m": 409.67355612606502 }, "geometry": { "type": "MultiLineString", "coordinates": [ [ [ -120.662310012664733, 35.318788721723337 ], [ -120.662050680413174, 35.318758254578611 ], [ -120.66186001403095, 35.318704722032777 ], [ -120.661653880113008, 35.318617055323109 ], [ -120.661554812966173, 35.318533055454211 ], [ -120.661470812749485, 35.318414921284351 ], [ -120.661440279324196, 35.318288921557873 ], [ -120.661364013395612, 35.318166922255578 ], [ -120.661264813060427, 35.318029655521499 ], [ -120.661188479497156, 35.317941854782248 ], [ -120.661127480281237, 35.317846522189853 ], [ -120.661058813371383, 35.317754921831735 ], [ -120.660974879748863, 35.317644321698552 ], [ -120.66082987927571, 35.317514521340136 ], [ -120.660715613050925, 35.317388722281393 ], [ -120.660608679468169, 35.31722852171459 ], [ -120.660585812696269, 35.317129321757861 ], [ -120.660540013598833, 35.317056855398533 ], [ -120.660433213204442, 35.316957655231192 ], [ -120.660364479700377, 35.316854655479879 ], [ -120.660219612415574, 35.316660121922702 ], [ -120.660128012139637, 35.316522855178121 ], [ -120.660044079557679, 35.316377855081939 ], [ -120.660036412904262, 35.316164254981977 ], [ -120.66001361272653, 35.316026854943871 ], [ -120.660013479538179, 35.315881921882543 ] ] ] } },
{ "type": "Feature", "properties": { "nhd_objectid": 15213364, "permanent_identifier": "{4225E7AA-6198-4519-A867-59E9033EC22D}", "gnis_name": null, "nhd_lengthkm": 0.09365932, "reachcode": "18060006004458", "flowdir": 1, "ftype": 460, "fcode": 46007, "feature_type": "Stream/River", "hydro_category": "Ephemeral", "innetwork": 1, "mainpath": 0, "visibilityfilter": 24000, "globalid": "{68738D6A-E81A-4389-9824-812FF794F99F}", "clipped_length_m": 93.0798750048736 }, "geometry": { "type": "MultiLineString", "coordinates": [ [ [ -120.671626014200839, 35.310697853798153 ], [ -120.671771081268133, 35.310438453891443 ], [ -120.671755680326612, 35.310266720518165 ], [ -120.671710014417528, 35.310186653553657 ], [ -120.671618480735731, 35.310041720216333 ], [ -120.671565013944374, 35.309919654129907 ] ] ] } },
{ "type": "Feature", "properties": { "nhd_objectid": 15888382, "permanent_identifier": "28000170", "gnis_name": "Stenner Creek", "nhd_lengthkm": 1.76452045, "reachcode": "18060006004829", "flowdir": 1, "ftype": 460, "fcode": 46003, "feature_type": "Stream/River", "hydro_category": "Intermittent", "innetwork": 1, "mainpath": 0, "visibilityfilter": 250000, "globalid": "{DFE3F8D8-4C81-11E1-BCF4-0021280458E6}", "clipped_length_m": 1503.4324718100065 }, "geometry": { "type": "MultiLineString", "coordinates": [ [ [ -120.677478081670102, 35.307142520020854 ], [ -120.677394081453414, 35.307112052734624 ], [ -120.677348414503825, 35.30707772013119 ], [ -120.677264480881291, 35.307012920189692 ], [ -120.677211015130453, 35.306951853041376 ], [ -120.677165214992485, 35.306833519388817 ], [ -120.677134681567154, 35.306734452736073 ], [ -120.677020214519359, 35.306623719501083 ], [ -120.676898281641144, 35.306562853307504 ], [ -120.676814281424456, 35.3065283200715 ], [ -120.676745614514587, 35.306421519823722 ], [ -120.676677014198901, 35.30631471943488 ], [ -120.676600614041433, 35.306272852808476 ], [ -120.676471014509829, 35.306230852843285 ], [ -120.676310680729884, 35.306143119965185 ], [ -120.676188614663332, 35.306047719968909 ], [ -120.676120014347632, 35.305914253022614 ], [ -120.676074214209663, 35.305807452813319 ], [ -120.676036213913449, 35.305681520060233 ], [ -120.67597508046866, 35.305559453338724 ], [ -120.675868214520619, 35.305448852662977 ], [ -120.675730814106714, 35.305353519781079 ], [ -120.675380013727022, 35.305178052876158 ], [ -120.675234881106064, 35.30509791973526 ], [ -120.675097680474693, 35.305002519355703 ], [ -120.675036613624073, 35.304922519360147 ], [ -120.674830613935001, 35.304762253341963 ], [ -120.674731413599815, 35.304685919823307 ], [ -120.67457121404874, 35.304590519807135 ], [ -120.674410880268795, 35.304552453178012 ], [ -120.674205013768045, 35.304537119695617 ], [ -120.674067480165846, 35.304529453377924 ], [ -120.673937880634213, 35.304510519404246 ], [ -120.67383121342813, 35.304430319366723 ], [ -120.673785280101811, 35.304327319797025 ], [ -120.673685156813121, 35.304045139841783 ], [ -120.673901571205519, 35.303806390165946 ], [ -120.674068133621091, 35.303711211597843 ], [ -120.674163311252386, 35.303568443960337 ], [ -120.674139517364836, 35.303401881964348 ], [ -120.674020543764897, 35.303211524613687 ], [ -120.674091927508641, 35.303092551997402 ], [ -120.674163311252386, 35.30294978411748 ], [ -120.674163311252386, 35.302830811116351 ], [ -120.67404433869298, 35.302640454120528 ], [ -120.673853981349296, 35.302497686292121 ], [ -120.673639830118063, 35.302378713475449 ], [ -120.673473267702477, 35.302283534926289 ], [ -120.67300701384886, 35.302133919397839 ], [ -120.672755413804339, 35.302069052656051 ], [ -120.672526479708694, 35.302030919452399 ], [ -120.67222127968445, 35.301989053156824 ], [ -120.672114413736381, 35.301893653357638 ], [ -120.671984679975907, 35.301729653349177 ], [ -120.671877879581501, 35.301554119990257 ], [ -120.671793880405332, 35.30140151985924 ], [ -120.67174067999062, 35.301340452721519 ], [ -120.67164141306128, 35.301294719637482 ], [ -120.671481080321882, 35.301214653134636 ], [ -120.67140487994692, 35.301130653026213 ], [ -120.671359013214783, 35.301031452858624 ], [ -120.671214079335826, 35.300958919426222 ], [ -120.671038613072071, 35.300882652803843 ], [ -120.670924212618417, 35.300806319871135 ], [ -120.670764013067313, 35.300688119897806 ], [ -120.670710479681773, 35.300569852663926 ], [ -120.670664812732156, 35.300470719745981 ], [ -120.670611412534939, 35.300405919608039 ], [ -120.670527413358784, 35.300333452702965 ], [ -120.670428279617767, 35.300253319859358 ], [ -120.67033667934183, 35.300119719368944 ], [ -120.670229879987971, 35.299910053232963 ], [ -120.670184013255835, 35.299799452477814 ], [ -120.670130679652786, 35.299650652705161 ], [ -120.670054412683697, 35.299497919902493 ], [ -120.669970412467009, 35.299303452454815 ], [ -120.669894213132594, 35.29921185317756 ], [ -120.669734012540943, 35.299105119702524 ], [ -120.669550813029616, 35.299032652481806 ], [ -120.669398279091425, 35.298944853201697 ], [ -120.669306678815488, 35.298860919524721 ], [ -120.669230412886918, 35.298750319883354 ], [ -120.669169412630453, 35.298571052774591 ], [ -120.66914641267023, 35.298426052769791 ], [ -120.669131212551761, 35.298281119594947 ], [ -120.669116012433236, 35.298117052818256 ], [ -120.669070212295296, 35.297979719788302 ], [ -120.669024478751481, 35.297842452766048 ], [ -120.66899387873201, 35.297727919739479 ], [ -120.668978612019359, 35.297628719646781 ], [ -120.668856612546975, 35.297533453133923 ], [ -120.668766511292901, 35.297477139864171 ] ] ] } },
{ "type": "Feature", "properties": { "nhd_objectid": 16313556, "permanent_identifier": "{2FB10B58-58A6-4058-AF62-41D8C563A406}", "gnis_name": null, "nhd_lengthkm": 0.30526104, "reachcode": "18060006023606", "flowdir": 1, "ftype": 460, "fcode": 46007, "feature_type": "Stream/River", "hydro_category": "Ephemeral", "innetwork": 1, "mainpath": 0, "visibilityfilter": 0, "globalid": "{FDB8323D-12C1-4CEB-88F9-56A6FA70AD3C}", "clipped_length_m": 139.31778858772128 }, "geometry": { "type": "MultiLineString", "coordinates": [ [ [ -120.649330295582018, 35.299175195064606 ], [ -120.649398922972679, 35.299106567636571 ], [ -120.64968445898819, 35.298773443615545 ], [ -120.649803431547596, 35.298487907648934 ], [ -120.65006517263501, 35.298083400035274 ] ] ] } },
{ "type": "Feature", "properties": { "nhd_objectid": 16560820, "permanent_identifier": "{761C136B-806E-4AF3-95FD-084E5A04B30E}", "gnis_name": null, "nhd_lengthkm": 0.04213711, "reachcode": "18060006023701", "flowdir": 1, "ftype": 460, "fcode": 46007, "feature_type": "Stream/River", "hydro_category": "Ephemeral", "innetwork": 1, "mainpath": 0, "visibilityfilter": 0, "globalid": "{93C61C94-09FE-4350-85E1-3387B38ACED0}", "clipped_length_m": 41.787182003185094 }, "geometry": { "type": "MultiLineString", "coordinates": [ [ [ -120.652872936690869, 35.296441571042806 ], [ -120.652924735506488, 35.296067389625087 ] ] ] } },
{ "type": "Feature", "properties": { "nhd_objectid": 16763145, "permanent_identifier": "{55AE6B1C-84CF-4867-8905-5311C6C3DDBB}", "gnis_name": null, "nhd_lengthkm": 0.31686317, "reachcode": "18060006023579", "flowdir": 1, "ftype": 460, "fcode": 46007, "feature_type": "Stream/River", "hydro_category": "Ephemeral", "innetwork": 1, "mainpath": 0, "visibilityfilter": 0, "globalid": "{E4433973-4EF3-475D-AEBF-C87721092AF8}", "clipped_length_m": 317.64479624302777 }, "geometry": { "type": "MultiLineString", "coordinates": [ [ [ -120.657917395893136, 35.31152735527796 ], [ -120.65810775323682, 35.311432176453124 ], [ -120.658345699396165, 35.311218024112343 ], [ -120.658583644514977, 35.310956283196468 ], [ -120.658845386642923, 35.310646954092526 ], [ -120.659107126689818, 35.310432802220205 ], [ -120.659392662705372, 35.310290034556459 ], [ -120.65967819768035, 35.310194855973961 ], [ -120.660011323552041, 35.310099678128587 ], [ -120.660320651374079, 35.30995691072598 ], [ -120.660653776205251, 35.309909320403634 ] ] ] } },
{ "type": "Feature", "properties": { "nhd_objectid": 16785808, "permanent_identifier": "{AAD7A6E5-2338-412D-9B83-F14B2E6771D2}", "gnis_name": null, "nhd_lengthkm": 0.28030691, "reachcode": "18060006023701", "flowdir": 1, "ftype": 460, "fcode": 46007, "feature_type": "Stream/River", "hydro_category": "Ephemeral", "innetwork": 1, "mainpath": 0, "visibilityfilter": 0, "globalid": "{3F9218E7-682F-4B8C-A428-FE0217C61325}", "clipped_length_m": 279.25473211225886 }, "geometry": { "type": "MultiLineString", "coordinates": [ [ [ -120.651778384566015, 35.298559291735053 ], [ -120.652040125653457, 35.298392728769514 ], [ -120.652373250484629, 35.298130987972399 ], [ -120.652634991572071, 35.297678891248971 ], [ -120.652801552947153, 35.297417150690819 ], [ -120.65291521774337, 35.297280915399163 ], [ -120.65300087865208, 35.297180978460226 ], [ -120.653067504034524, 35.29705248707954 ], [ -120.653086539560761, 35.296952549858553 ], [ -120.653057986271406, 35.296828818173196 ], [ -120.652986601487115, 35.296719363095747 ], [ -120.6529485304346, 35.296619425463312 ], [ -120.652872936690869, 35.296441571042806 ] ] ] } },
{ "type": "Feature", "properties": { "nhd_objectid": 16785827, "permanent_identifier": "28000094", "gnis_name": null, "nhd_lengthkm": 0.36992561, "reachcode": "18060006004453", "flowdir": 1, "ftype": 460, "fcode": 46007, "feature_type": "Stream/River", "hydro_category": "Ephemeral", "innetwork": 1, "mainpath": 0, "visibilityfilter": 24000, "globalid": "{01D9591C-4C7D-11E1-BCF4-0021280458E6}", "clipped_length_m": 370.04210853727727 }, "geometry": { "type": "MultiLineString", "coordinates": [ [ [ -120.663103613265065, 35.31313152116428 ], [ -120.663179812599481, 35.313078121595957 ], [ -120.663187613481753, 35.313024721143279 ], [ -120.663195079312132, 35.312948454856603 ], [ -120.663179879193635, 35.312853121472571 ], [ -120.663179879193635, 35.312750121588394 ], [ -120.663179879193635, 35.312654720892787 ], [ -120.663195079312132, 35.312536454169454 ], [ -120.66325621275692, 35.312433520960006 ], [ -120.663324879666789, 35.312303854885435 ], [ -120.663424080001946, 35.312216054722654 ], [ -120.663500412524684, 35.312147454119106 ], [ -120.663584279553049, 35.31207492131216 ], [ -120.663744613332995, 35.311975720977756 ], [ -120.663920013002596, 35.311926121189472 ], [ -120.664110679384819, 35.311872654596051 ], [ -120.664217612967576, 35.311846054169351 ], [ -120.664286213283262, 35.311853720642766 ], [ -120.664377880153381, 35.3119108544849 ], [ -120.664454079487797, 35.311949054355665 ], [ -120.664515079744262, 35.3119528540484 ], [ -120.664560879882202, 35.311918520952204 ], [ -120.664614280079419, 35.311849854716023 ], [ -120.664667680276636, 35.311788854052047 ], [ -120.664743879611024, 35.311701054179366 ], [ -120.664873813154003, 35.311590454258159 ], [ -120.665026212863353, 35.311491321257485 ], [ -120.665209480009381, 35.311437854376607 ], [ -120.665407813045022, 35.311369253962113 ], [ -120.665590880408573, 35.311273720876393 ], [ -120.665720613128528, 35.311167054258611 ] ] ] } },
{ "type": "Feature", "properties": { "nhd_objectid": 16987707, "permanent_identifier": "{C51702CD-79A0-4348-AFC1-2E74CAA3EF76}", "gnis_name": null, "nhd_lengthkm": 0.35915046, "reachcode": "18060006023604", "flowdir": 1, "ftype": 460, "fcode": 46007, "feature_type": "Stream/River", "hydro_category": "Ephemeral", "innetwork": 1, "mainpath": 0, "visibilityfilter": 0, "globalid": "{055A9E3C-6C0D-41E5-944C-254B65157871}", "clipped_length_m": 304.65003443327242 }, "geometry": { "type": "MultiLineString", "coordinates": [ [ [ -120.649329423385183, 35.300375457512182 ], [ -120.649660665100626, 35.300201120225346 ], [ -120.650136556378754, 35.299915584200932 ], [ -120.650588653769333, 35.299653843233905 ], [ -120.650850395897308, 35.299344513375516 ], [ -120.65108834101612, 35.299035184033201 ], [ -120.651326287175465, 35.298821031996162 ], [ -120.651778384566015, 35.298559291735053 ] ] ] } },
{ "type": "Feature", "properties": { "nhd_objectid": 17211750, "permanent_identifier": "{EA2A7F0C-147C-4341-BFA4-516D50E4B2C9}", "gnis_name": null, "nhd_lengthkm": 0.14495428, "reachcode": "18060006004450", "flowdir": 1, "ftype": 460, "fcode": 46007, "feature_type": "Stream/River", "hydro_category": "Ephemeral", "innetwork": 1, "mainpath": 0, "visibilityfilter": 0, "globalid": "{E24AC55B-0356-43EE-9F97-796D53535EFA}", "clipped_length_m": 37.31698788253518 }, "geometry": { "type": "MultiLineString", "coordinates": [ [ [ -120.651756058399869, 35.313418980838023 ], [ -120.651720078251728, 35.313326121795463 ], [ -120.651720011657559, 35.313242122374575 ], [ -120.651697211479828, 35.313154455686821 ], [ -120.651689611420579, 35.313089522212756 ] ] ] } },
{ "type": "Feature", "properties": { "nhd_objectid": 17662021, "permanent_identifier": "{F1BFF44F-F709-40D0-B53A-3AE2D7BBAB60}", "gnis_name": null, "nhd_lengthkm": 0.29432141, "reachcode": "18060006023567", "flowdir": 1, "ftype": 460, "fcode": 46007, "feature_type": "Stream/River", "hydro_category": "Ephemeral", "innetwork": 1, "mainpath": 0, "visibilityfilter": 0, "globalid": "{909A9B6F-9801-4F08-ADF7-E78FA4B3E81E}", "clipped_length_m": 293.84346673959061 }, "geometry": { "type": "MultiLineString", "coordinates": [ [ [ -120.674859160981185, 35.310623158713277 ], [ -120.67497813458111, 35.31057556878293 ], [ -120.675311259412339, 35.310409006777974 ], [ -120.675668178131062, 35.310075882588343 ], [ -120.675906123249845, 35.309671374315741 ], [ -120.676120275521626, 35.309338249635758 ], [ -120.676286837937226, 35.309028919439157 ], [ -120.67647719528091, 35.308743384848057 ], [ -120.676806681365207, 35.308645520352073 ] ] ] } },
{ "type": "Feature", "properties": { "nhd_objectid": 17886798, "permanent_identifier": "{FEF4AB9C-C004-4D1A-88B6-907B44FA2D81}", "gnis_name": null, "nhd_lengthkm": 0.12890848, "reachcode": "18060006004442", "flowdir": 1, "ftype": 460, "fcode": 46007, "feature_type": "Stream/River", "hydro_category": "Ephemeral", "innetwork": 1, "mainpath": 0, "visibilityfilter": 0, "globalid": "{CF9FC9D7-237B-4179-83BA-EB926D80A26E}", "clipped_length_m": 128.11059578830955 }, "geometry": { "type": "MultiLineString", "coordinates": [ [ [ -120.67721868178387, 35.308206852818721 ], [ -120.67725681422786, 35.308088653466804 ], [ -120.67727961440562, 35.307943653534529 ], [ -120.677256681039538, 35.307779653051988 ], [ -120.67721861414914, 35.307627053623648 ], [ -120.6771956807831, 35.307527920011474 ], [ -120.67722628184309, 35.307432519949892 ], [ -120.677249214168612, 35.307394320493628 ], [ -120.677317814484326, 35.307340919685217 ], [ -120.677394214641765, 35.307287519690739 ], [ -120.677447481650631, 35.307230319746623 ], [ -120.677478080629584, 35.307142520020854 ] ] ] } },
{ "type": "Feature", "properties": { "nhd_objectid": 18559419, "permanent_identifier": "28000074", "gnis_name": "Brizzolara Creek", "nhd_lengthkm": 0.24740686, "reachcode": "18060006001345", "flowdir": 1, "ftype": 460, "fcode": 46003, "feature_type": "Stream/River", "hydro_category": "Intermittent", "innetwork": 1, "mainpath": 0, "visibilityfilter": 100000, "globalid": "{DD2C798D-4C8B-11E1-BCF4-0021280458E6}", "clipped_length_m": 69.680675056212607 }, "geometry": { "type": "MultiLineString", "coordinates": [ [ [ -120.650537719878315, 35.313782072169687 ], [ -120.650659610894209, 35.313753321988472 ], [ -120.650819811485846, 35.313703722441197 ], [ -120.650896824059558, 35.313670695663014 ] ], [ [ -120.650986978056707, 35.313591159803295 ], [ -120.651002811214667, 35.313543522216619 ], [ -120.651033411234138, 35.313478655282871 ], [ -120.651086878025495, 35.31341765499824 ], [ -120.651178411707292, 35.313326121795448 ] ] ] } },
{ "type": "Feature", "properties": { "nhd_objectid": 19233107, "permanent_identifier": "{53E07CAC-1BA9-4D56-AA36-89B0BBC834CF}", "gnis_name": null, "nhd_lengthkm": 0.26604735, "reachcode": "18060006023694", "flowdir": 1, "ftype": 460, "fcode": 46007, "feature_type": "Stream/River", "hydro_category": "Ephemeral", "innetwork": 1, "mainpath": 0, "visibilityfilter": 0, "globalid": "{5D0A7D2C-1B31-47A1-8A58-EFD42AD6A620}", "clipped_length_m": 263.89810419976106 }, "geometry": { "type": "MultiLineString", "coordinates": [ [ [ -120.663128416470485, 35.315477260098604 ], [ -120.662985650023501, 35.314977573618926 ], [ -120.662938060167306, 35.314596860302586 ], [ -120.662890471351673, 35.314120966986067 ], [ -120.662985650023501, 35.313716458564514 ], [ -120.663103612224518, 35.31313152116428 ] ] ] } },
{ "type": "Feature", "properties": { "nhd_objectid": 19680666, "permanent_identifier": "28000114", "gnis_name": null, "nhd_lengthkm": 0.00953089, "reachcode": "18060006004458", "flowdir": 1, "ftype": 460, "fcode": 46007, "feature_type": "Stream/River", "hydro_category": "Ephemeral", "innetwork": 1, "mainpath": 0, "visibilityfilter": 24000, "globalid": "{28F262AB-4C79-11E1-BCF4-0021280458E6}", "clipped_length_m": 9.4674695382198237 }, "geometry": { "type": "MultiLineString", "coordinates": [ [ [ -120.670408230611542, 35.307627325348022 ], [ -120.670397614044674, 35.30761185318962 ], [ -120.670374813866928, 35.307546920360963 ] ] ] } },
{ "type": "Feature", "properties": { "nhd_objectid": 19905228, "permanent_identifier": "{282B9A29-843E-41A9-A182-A50E5E24B130}", "gnis_name": null, "nhd_lengthkm": 0.11782749, "reachcode": "18060006004440", "flowdir": 1, "ftype": 460, "fcode": 46007, "feature_type": "Stream/River", "hydro_category": "Ephemeral", "innetwork": 1, "mainpath": 0, "visibilityfilter": 0, "globalid": "{825BBA1A-7DBF-4196-A1EB-54ED78CB82B7}", "clipped_length_m": 117.12334649895678 }, "geometry": { "type": "MultiLineString", "coordinates": [ [ [ -120.660624012774989, 35.314474321367477 ], [ -120.660669679724634, 35.31437132184972 ], [ -120.660700212109404, 35.314283521383949 ], [ -120.660753678900775, 35.314172920748703 ], [ -120.660784213366611, 35.314077655035469 ], [ -120.660799412444561, 35.313970721261299 ], [ -120.660814679157241, 35.313875455309905 ], [ -120.660845279176712, 35.313760921204285 ], [ -120.660875679413678, 35.313711321661671 ], [ -120.660929079610895, 35.313673255078903 ], [ -120.660990213055683, 35.313612120787006 ], [ -120.661066412390099, 35.313505454705769 ] ] ] } },
{ "type": "Feature", "properties": { "nhd_objectid": 20579405, "permanent_identifier": "28000168", "gnis_name": "Brizzolara Creek", "nhd_lengthkm": 0.767, "reachcode": "18060006001345", "flowdir": 1, "ftype": 460, "fcode": 46003, "feature_type": "Stream/River", "hydro_category": "Intermittent", "innetwork": 1, "mainpath": 0, "visibilityfilter": 100000, "globalid": "{DFE9EAB6-4C81-11E1-BCF4-0021280458E6}", "clipped_length_m": 525.59368475322901 }, "geometry": { "type": "MultiLineString", "coordinates": [ [ [ -120.667414479454166, 35.302343719888697 ], [ -120.667437412820234, 35.302294120139081 ], [ -120.667468012839734, 35.30220645347535 ], [ -120.667468012839734, 35.302057653033707 ], [ -120.667460279592134, 35.301954652991192 ], [ -120.667460279592134, 35.301805852935651 ], [ -120.667437412820234, 35.301683853398259 ], [ -120.667429812760986, 35.301576920224434 ], [ -120.667437279631912, 35.301432052986215 ], [ -120.667429812760986, 35.301218320006257 ], [ -120.667414479454166, 35.301157453143063 ], [ -120.667437412820234, 35.301042919712984 ], [ -120.667475479710617, 35.300924652997644 ], [ -120.667414479454166, 35.300760652723717 ], [ -120.667437479414417, 35.300623319933941 ], [ -120.667475612898954, 35.300493652762761 ], [ -120.667529012055624, 35.300325719748166 ], [ -120.667574812193592, 35.300199853194087 ], [ -120.667605279024741, 35.300051053308515 ], [ -120.667666279281178, 35.299925253415573 ], [ -120.667727279537644, 35.299837519644626 ], [ -120.667750212903712, 35.29976505307976 ], [ -120.667818878773033, 35.299673452626436 ], [ -120.667864612316833, 35.299566519343635 ], [ -120.66788761227707, 35.299429253314472 ], [ -120.667940879285936, 35.299276719662082 ], [ -120.667963879246187, 35.299173719476627 ], [ -120.667910412454816, 35.299032653331054 ], [ -120.667796078595316, 35.298872452926624 ], [ -120.667780812923183, 35.298769453075863 ], [ -120.667780879517338, 35.298658853309504 ], [ -120.667788278753562, 35.298529053057607 ], [ -120.667757879557115, 35.298410719824915 ], [ -120.667704479359926, 35.298265852863047 ], [ -120.667651079162709, 35.29816285308948 ], [ -120.667597678965492, 35.298078919450695 ], [ -120.667559478886801, 35.297991119135851 ], [ -120.667559478886801, 35.297892052696596 ], [ -120.667559478886801, 35.297815719490629 ], [ -120.667551993368306, 35.297772735213549 ] ] ] } },
{ "type": "Feature", "properties": { "nhd_objectid": 21702312, "permanent_identifier": "{E1E9D565-ABE5-41DD-9377-A1B11BA16628}", "gnis_name": "Brizzolara Creek", "nhd_lengthkm": 0.05387228, "reachcode": "18060006001345", "flowdir": 1, "ftype": 460, "fcode": 46003, "feature_type": "Stream/River", "hydro_category": "Intermittent", "innetwork": 1, "mainpath": 0, "visibilityfilter": 100000, "globalid": "{9E786DF8-AAE9-4C30-A556-7D64C2ECC440}", "clipped_length_m": 54.107642233354227 }, "geometry": { "type": "MultiLineString", "coordinates": [ [ [ -120.651178411707292, 35.313326121795448 ], [ -120.651300411179662, 35.31325745505611 ], [ -120.65136907808953, 35.313226922146541 ], [ -120.651483611731521, 35.313181121911484 ], [ -120.651575210966925, 35.313165921672081 ], [ -120.651628477975791, 35.313135454956281 ], [ -120.651689611420579, 35.313089522212756 ] ] ] } },
{ "type": "Feature", "properties": { "nhd_objectid": 22151917, "permanent_identifier": "28000116", "gnis_name": null, "nhd_lengthkm": 0.75007183, "reachcode": "18060006004442", "flowdir": 1, "ftype": 460, "fcode": 46007, "feature_type": "Stream/River", "hydro_category": "Ephemeral", "innetwork": 1, "mainpath": 0, "visibilityfilter": 0, "globalid": "{0608D133-4C8A-11E1-BCF4-0021280458E6}", "clipped_length_m": 451.45535442964859 }, "geometry": { "type": "MultiLineString", "coordinates": [ [ [ -120.676457538652727, 35.312292145086957 ], [ -120.676509081400226, 35.312181853347262 ], [ -120.676554814944026, 35.312082653144017 ], [ -120.676677014198901, 35.311933853884653 ], [ -120.67674561555512, 35.311838453075403 ], [ -120.676860081562396, 35.311750720335048 ], [ -120.676936281937358, 35.311674320388079 ], [ -120.677004882253058, 35.311445520039648 ], [ -120.67703548227253, 35.311323453524302 ], [ -120.677081281369965, 35.311216653663259 ], [ -120.677134814755505, 35.311121253706354 ], [ -120.67719581501197, 35.311014453578295 ], [ -120.677279682040307, 35.310934320274711 ], [ -120.677371214681528, 35.310823653924047 ], [ -120.677340814444548, 35.310728453892679 ], [ -120.677325415584107, 35.310629120295381 ], [ -120.67726441532767, 35.310537653563813 ], [ -120.677188015170202, 35.310423119826403 ], [ -120.677157681527405, 35.310297252846929 ], [ -120.677188081764371, 35.310163853198411 ], [ -120.677150014873988, 35.310060853286181 ], [ -120.677081281369965, 35.309953920145389 ], [ -120.677020215559878, 35.309835653718679 ], [ -120.67705068135048, 35.309740320062353 ], [ -120.677089014617536, 35.309645053373934 ], [ -120.677150014873988, 35.309526720264387 ], [ -120.67719581501197, 35.309370320072134 ], [ -120.677218615189702, 35.309259653279987 ], [ -120.67722628184309, 35.30911485329235 ], [ -120.67719581501197, 35.309030852894566 ], [ -120.677119481448685, 35.308943052575557 ], [ -120.677004882253058, 35.308863053080096 ], [ -120.676875214046206, 35.30874471967573 ], [ -120.676806681365207, 35.308645520352073 ] ] ] } },
{ "type": "Feature", "properties": { "nhd_objectid": 22600123, "permanent_identifier": "{BBE37BCC-3CB2-4C69-B5AD-D72AAAE85C3A}", "gnis_name": null, "nhd_lengthkm": 0.44226945, "reachcode": "18060006023582", "flowdir": 1, "ftype": 460, "fcode": 46007, "feature_type": "Stream/River", "hydro_category": "Ephemeral", "innetwork": 1, "mainpath": 0, "visibilityfilter": 0, "globalid": "{A32C0A95-1B20-41D0-9BD8-E4D67971C02B}", "clipped_length_m": 438.68670113350504 }, "geometry": { "type": "MultiLineString", "coordinates": [ [ [ -120.656037621546545, 35.311979452741809 ], [ -120.655942442874689, 35.311670122456064 ], [ -120.655966237802801, 35.311336998365441 ], [ -120.655990032730912, 35.311003873751957 ], [ -120.656132800218373, 35.310670748615657 ], [ -120.656227978890229, 35.310337624654814 ], [ -120.65627556770589, 35.310004499322112 ], [ -120.65627556770589, 35.309528607855434 ], [ -120.65627556770589, 35.309076510279503 ], [ -120.65627556770589, 35.308624411875087 ], [ -120.656397211315678, 35.308077121378531 ] ] ] } },
{ "type": "Feature", "properties": { "nhd_objectid": 22600125, "permanent_identifier": "{B98A4F74-F05D-49A6-9D20-880E4D32C37A}", "gnis_name": null, "nhd_lengthkm": 0.31947689, "reachcode": "18060006023588", "flowdir": 1, "ftype": 460, "fcode": 46007, "feature_type": "Stream/River", "hydro_category": "Ephemeral", "innetwork": 1, "mainpath": 0, "visibilityfilter": 0, "globalid": "{6F2F8F19-6AB0-415C-889B-D653926E322B}", "clipped_length_m": 318.18635334910016 }, "geometry": { "type": "MultiLineString", "coordinates": [ [ [ -120.649565486428784, 35.310932490455514 ], [ -120.64968445898819, 35.311099052231626 ], [ -120.649827227516226, 35.311455971594391 ], [ -120.65001758485991, 35.311908068608147 ], [ -120.650184147275496, 35.312312577582915 ], [ -120.650350708650549, 35.312693292311799 ], [ -120.650517271066136, 35.313026415911096 ], [ -120.650707628409819, 35.313169183839655 ], [ -120.650874190825391, 35.313240567709443 ], [ -120.651178410666759, 35.313326121795463 ] ] ] } },
{ "type": "Feature", "properties": { "nhd_objectid": 23520977, "permanent_identifier": "28000110", "gnis_name": null, "nhd_lengthkm": 0.64400305, "reachcode": "18060006004457", "flowdir": 1, "ftype": 460, "fcode": 46007, "feature_type": "Stream/River", "hydro_category": "Ephemeral", "innetwork": 1, "mainpath": 0, "visibilityfilter": 0, "globalid": "{326A3CEF-4C8F-11E1-BCF4-0021280458E6}", "clipped_length_m": 642.9798410150313 }, "geometry": { "type": "MultiLineString", "coordinates": [ [ [ -120.662028761567612, 35.312936070132764 ], [ -120.662035412659975, 35.312925521124711 ], [ -120.662104079569843, 35.312795921218395 ], [ -120.66214987970784, 35.312696654690541 ], [ -120.662249212190801, 35.312563121446928 ], [ -120.662294879140418, 35.312525054323771 ], [ -120.662424478672051, 35.312437254401104 ], [ -120.662523813236078, 35.312353321135085 ], [ -120.662554413255577, 35.312219921481002 ], [ -120.662600079164648, 35.312025320735593 ], [ -120.662668679480362, 35.31188792130785 ], [ -120.662790813181587, 35.311800254850546 ], [ -120.662928079366623, 35.311720254784355 ], [ -120.66302727970178, 35.311632454837202 ], [ -120.663088413146568, 35.311514121238574 ], [ -120.663096013205816, 35.311365320933341 ], [ -120.663103612224518, 35.311186054602558 ], [ -120.663233279390852, 35.310926654563197 ], [ -120.66334781199231, 35.31079325510354 ], [ -120.663454479198393, 35.310655854432063 ], [ -120.663576679493801, 35.310518520606742 ], [ -120.663729278985656, 35.31041552029702 ], [ -120.663866612805379, 35.310346920713755 ], [ -120.664004079813452, 35.310304921165454 ], [ -120.664194613007353, 35.310240054181776 ], [ -120.664370213499978, 35.310201920583744 ], [ -120.664538079704457, 35.310182853777917 ], [ -120.664705879314809, 35.310152320556888 ], [ -120.664850813193752, 35.310114254846482 ], [ -120.66496527920107, 35.310037920433793 ], [ -120.665018679398287, 35.309919654129899 ], [ -120.664995879220555, 35.309843453693844 ], [ -120.664988212567167, 35.309728853591494 ], [ -120.665003613508659, 35.309618254370243 ], [ -120.665110279674209, 35.309404654249953 ], [ -120.665194213296758, 35.309271120666438 ], [ -120.665301012650616, 35.309141453768078 ], [ -120.665415479698439, 35.309038521333079 ], [ -120.665529879111574, 35.308992653343886 ], [ -120.665659613912581, 35.308931720153467 ], [ -120.665743479900428, 35.308870521140896 ], [ -120.665835079135803, 35.308794320565653 ], [ -120.665919012758323, 35.308718054535859 ], [ -120.665993855236579, 35.308682989816887 ] ] ] } },
{ "type": "Feature", "properties": { "nhd_objectid": 23948357, "permanent_identifier": "{1A5E5009-666E-46DA-80E9-CFB6D8EF1C1C}", "gnis_name": null, "nhd_lengthkm": 0.36188231, "reachcode": "18060006023581", "flowdir": 1, "ftype": 460, "fcode": 46007, "feature_type": "Stream/River", "hydro_category": "Ephemeral", "innetwork": 1, "mainpath": 0, "visibilityfilter": 0, "globalid": "{EEB55B75-4780-4D99-BD48-5ED5BE0E32D4}", "clipped_length_m": 361.75068125763971 }, "geometry": { "type": "MultiLineString", "coordinates": [ [ [ -120.651040752200458, 35.308077135813789 ], [ -120.651445260775375, 35.308338877554462 ], [ -120.651778385606562, 35.30857682416535 ], [ -120.652135304325284, 35.308886153543291 ], [ -120.652492225125116, 35.309314455569812 ], [ -120.652872937731416, 35.309766553514187 ], [ -120.653277446306333, 35.310099678977679 ], [ -120.653757211491993, 35.310426922138205 ] ] ] } },
{ "type": "Feature", "properties": { "nhd_objectid": 24397732, "permanent_identifier": "{74AF4710-124D-4C37-8AB7-DB8939572757}", "gnis_name": null, "nhd_lengthkm": 0.32056893, "reachcode": "18060006023605", "flowdir": 1, "ftype": 460, "fcode": 46007, "feature_type": "Stream/River", "hydro_category": "Ephemeral", "innetwork": 1, "mainpath": 0, "visibilityfilter": 0, "globalid": "{E924E477-5778-4C5D-8F4F-B90452F4D67F}", "clipped_length_m": 321.41462641612776 }, "geometry": { "type": "MultiLineString", "coordinates": [ [ [ -120.65006517263501, 35.298083400035274 ], [ -120.650326913722438, 35.297940632659014 ], [ -120.650564859881783, 35.297702685339956 ], [ -120.650802805000595, 35.297583712267276 ], [ -120.651112135944203, 35.297559917292091 ], [ -120.651397671959742, 35.297417150690819 ], [ -120.651802179494126, 35.297226792849187 ], [ -120.65201633072536, 35.297107819926175 ], [ -120.652278070772283, 35.296941258219512 ], [ -120.652658785459636, 35.296703312208344 ], [ -120.652872936690869, 35.296441571042806 ] ] ] } },
{ "type": "Feature", "properties": { "nhd_objectid": 24397734, "permanent_identifier": "{746D63F4-A0CA-4423-B6A5-D1B38EB96EB1}", "gnis_name": null, "nhd_lengthkm": 0.23876782, "reachcode": "18060006023696", "flowdir": 1, "ftype": 460, "fcode": 46007, "feature_type": "Stream/River", "hydro_category": "Ephemeral", "innetwork": 1, "mainpath": 0, "visibilityfilter": 0, "globalid": "{B20C41E6-8B01-4CF4-BCAC-E13BB4DE81D1}", "clipped_length_m": 237.41958831653244 }, "geometry": { "type": "MultiLineString", "coordinates": [ [ [ -120.660653776205251, 35.309909320403634 ], [ -120.660844134589482, 35.309790348296282 ], [ -120.661105874636348, 35.309647580347736 ], [ -120.661201052267671, 35.309290662345951 ], [ -120.661177258380121, 35.30898133111824 ], [ -120.661082079708265, 35.308767179931131 ], [ -120.661010694924002, 35.30848164441619 ], [ -120.661042326112522, 35.307991323133727 ] ] ] } },
{ "type": "Feature", "properties": { "nhd_objectid": 24645668, "permanent_identifier": "{90BE1F30-7DED-4CBE-B9D3-12281BFB5EF5}", "gnis_name": null, "nhd_lengthkm": 0.0872536, "reachcode": "18060006004453", "flowdir": 1, "ftype": 460, "fcode": 46007, "feature_type": "Stream/River", "hydro_category": "Ephemeral", "innetwork": 1, "mainpath": 0, "visibilityfilter": 24000, "globalid": "{CEB7A0F7-AAD6-48CC-AF8B-96A0FF2538A3}", "clipped_length_m": 87.950504898405029 }, "geometry": { "type": "MultiLineString", "coordinates": [ [ [ -120.662162569018122, 35.313231118299583 ], [ -120.662264279120947, 35.313223121664578 ], [ -120.662378812762952, 35.313207854355653 ], [ -120.662508479929258, 35.313173654248722 ], [ -120.662653479361865, 35.313135321650563 ], [ -120.662745013043647, 35.313120254708231 ], [ -120.662844213378804, 35.313112454199981 ], [ -120.662943412673442, 35.313123921040244 ], [ -120.66302727970178, 35.313146854715875 ], [ -120.663103613265065, 35.31313152116428 ] ] ] } },
{ "type": "Feature", "properties": { "nhd_objectid": 26420752, "permanent_identifier": "{39F682C6-39A8-4AD0-B0A2-0AA43667FE42}", "gnis_name": null, "nhd_lengthkm": 0.25200772, "reachcode": "18060006023584", "flowdir": 1, "ftype": 460, "fcode": 46007, "feature_type": "Stream/River", "hydro_category": "Ephemeral", "innetwork": 1, "mainpath": 0, "visibilityfilter": 0, "globalid": "{D7F58C13-0D54-40E7-939D-A33B8DE2BD00}", "clipped_length_m": 76.62483755082431 }, "geometry": { "type": "MultiLineString", "coordinates": [ [ [ -120.657203557415144, 35.315643822704494 ], [ -120.656941817368249, 35.315572439257721 ], [ -120.65660869357761, 35.315572439257721 ], [ -120.656375179513788, 35.315572439257728 ] ] ] } },
{ "type": "Feature", "properties": { "nhd_objectid": 26870919, "permanent_identifier": "{AB7BD9C6-3673-49E6-9591-626D985D6311}", "gnis_name": null, "nhd_lengthkm": 0.2403468, "reachcode": "18060006023573", "flowdir": 1, "ftype": 460, "fcode": 46007, "feature_type": "Stream/River", "hydro_category": "Ephemeral", "innetwork": 1, "mainpath": 0, "visibilityfilter": 0, "globalid": "{F5CC27A5-5480-46E9-8169-2062AFD3C333}", "clipped_length_m": 238.40982120903715 }, "geometry": { "type": "MultiLineString", "coordinates": [ [ [ -120.665603057776224, 35.314644448716074 ], [ -120.665603057776224, 35.314216145194109 ], [ -120.665579262848112, 35.313787843649415 ], [ -120.665531672991946, 35.313311950667135 ], [ -120.665412699391993, 35.312955031852354 ], [ -120.665269931904504, 35.312526727874911 ] ] ] } },
{ "type": "Feature", "properties": { "nhd_objectid": 27565369, "permanent_identifier": "28000120", "gnis_name": "Stenner Creek", "nhd_lengthkm": 0.49695747, "reachcode": "18060006004829", "flowdir": 1, "ftype": 460, "fcode": 46003, "feature_type": "Stream/River", "hydro_category": "Intermittent", "innetwork": 1, "mainpath": 0, "visibilityfilter": 250000, "globalid": "{10E0B9C9-4C78-11E1-BCF4-0021280458E6}", "clipped_length_m": 353.92888075164791 }, "geometry": { "type": "MultiLineString", "coordinates": [ [ [ -120.680546972602727, 35.30826833468813 ], [ -120.680545215436766, 35.308267852787388 ], [ -120.68047661512108, 35.308252653322924 ], [ -120.680354414825672, 35.308267919868854 ], [ -120.6802398822242, 35.308306119761752 ], [ -120.680171415096851, 35.308306052680329 ], [ -120.680041614742166, 35.308279319465335 ], [ -120.679896681903742, 35.308218319505301 ], [ -120.679759281489837, 35.308164920089972 ], [ -120.679324415339835, 35.307989453338585 ], [ -120.678927681633837, 35.307829252835326 ], [ -120.678790415448816, 35.307760519442589 ], [ -120.678630081668857, 35.307714719508922 ], [ -120.678485214384054, 35.307676653500565 ], [ -120.678370681782567, 35.307596519437887 ], [ -120.678340214951447, 35.307531719911886 ], [ -120.678248681269665, 35.307371453118314 ], [ -120.678119015143906, 35.307222652834966 ], [ -120.678019681620398, 35.307093053132114 ], [ -120.677905214572576, 35.306963252823259 ], [ -120.677790881753609, 35.306906052649879 ], [ -120.677684081359175, 35.306932853401229 ], [ -120.677638414409557, 35.306993720165536 ], [ -120.677600081142486, 35.307043452897403 ], [ -120.677569481123015, 35.307104452894158 ], [ -120.677478081670102, 35.307142520020854 ] ] ] } },
{ "type": "Feature", "properties": { "nhd_objectid": 27992717, "permanent_identifier": "{33DF9572-B9F3-4552-9E1F-3E22ADDF60FB}", "gnis_name": null, "nhd_lengthkm": 0.37445434, "reachcode": "18060006023574", "flowdir": 1, "ftype": 460, "fcode": 46007, "feature_type": "Stream/River", "hydro_category": "Ephemeral", "innetwork": 1, "mainpath": 0, "visibilityfilter": 0, "globalid": "{229B51B3-38ED-4D0A-A01A-4E6CE9D056AD}", "clipped_length_m": 358.93364240338531 }, "geometry": { "type": "MultiLineString", "coordinates": [ [ [ -120.665441379604985, 35.31793849954186 ], [ -120.665388905504429, 35.317571185912584 ], [ -120.66522234412939, 35.317166677766757 ], [ -120.664889219298203, 35.316785964566947 ], [ -120.664437120867092, 35.316500428490912 ], [ -120.664080202148341, 35.316286276833587 ], [ -120.663699488501521, 35.31607212545827 ], [ -120.663390158598432, 35.315810384967406 ], [ -120.663128416470485, 35.315477260098604 ] ] ] } },
{ "type": "Feature", "properties": { "nhd_objectid": 28467551, "permanent_identifier": "{B17A2251-4405-47AE-BF4B-E8FBDE63DBB2}", "gnis_name": null, "nhd_lengthkm": 0.45025527, "reachcode": "18060006023570", "flowdir": 1, "ftype": 460, "fcode": 46007, "feature_type": "Stream/River", "hydro_category": "Ephemeral", "innetwork": 1, "mainpath": 0, "visibilityfilter": 0, "globalid": "{714B5B05-D33D-4EC1-9EAA-37D40F12AC22}", "clipped_length_m": 75.944473029154011 }, "geometry": { "type": "MultiLineString", "coordinates": [ [ [ -120.669796777942594, 35.312296383579969 ], [ -120.669830485636894, 35.312284126285086 ], [ -120.669997049093041, 35.312260330538344 ], [ -120.670139816580516, 35.312165153425092 ], [ -120.670330173924214, 35.311998590447885 ], [ -120.670496735299253, 35.311998590447885 ] ] ] } },
{ "type": "Feature", "properties": { "nhd_objectid": 28670283, "permanent_identifier": "{3005EDB8-0A24-457D-AEEA-D75081E95DFC}", "gnis_name": null, "nhd_lengthkm": 0.39862647, "reachcode": "18060006023607", "flowdir": 1, "ftype": 460, "fcode": 46007, "feature_type": "Stream/River", "hydro_category": "Ephemeral", "innetwork": 1, "mainpath": 0, "visibilityfilter": 0, "globalid": "{55C77577-0DB5-49F6-8E01-607C48C09EA7}", "clipped_length_m": 397.37277429015984 }, "geometry": { "type": "MultiLineString", "coordinates": [ [ [ -120.649398924013184, 35.301509824727589 ], [ -120.649636870172529, 35.301176698710904 ], [ -120.64987481633186, 35.300891163581241 ], [ -120.650184146234977, 35.300629423222119 ], [ -120.650493476138038, 35.30036768286562 ], [ -120.650802805000595, 35.30012973588908 ], [ -120.651016957272361, 35.299844201311188 ], [ -120.651326287175465, 35.299487281671993 ], [ -120.651540439447231, 35.299082772259908 ], [ -120.651778384566015, 35.298559291735053 ] ] ] } },
{ "type": "Feature", "properties": { "nhd_objectid": 30363822, "permanent_identifier": "{5CCE46BE-BD2A-4754-9662-A4A39AA7ECC3}", "gnis_name": "Brizzolara Creek", "nhd_lengthkm": 0.49668904, "reachcode": "18060006001345", "flowdir": 1, "ftype": 460, "fcode": 46003, "feature_type": "Stream/River", "hydro_category": "Intermittent", "innetwork": 1, "mainpath": 0, "visibilityfilter": 100000, "globalid": "{CBBE180C-3624-4B80-B3D8-33F2BD1AFAD0}", "clipped_length_m": 497.61044065479075 }, "geometry": { "type": "MultiLineString", "coordinates": [ [ [ -120.656397211315678, 35.308077121378531 ], [ -120.656763411596373, 35.307874921088079 ], [ -120.656877812050027, 35.307833054419881 ], [ -120.656999878116565, 35.307794854303658 ], [ -120.657129678471208, 35.307714721207169 ], [ -120.657205877805609, 35.307627054472817 ], [ -120.657259211408672, 35.307520253977174 ], [ -120.657320278259292, 35.307386654446674 ], [ -120.657373811644831, 35.307287521389064 ], [ -120.657488212098485, 35.307173120611182 ], [ -120.657587411393123, 35.307108254512777 ], [ -120.657785812063466, 35.306986121163135 ], [ -120.65793067830775, 35.306906120581566 ], [ -120.658060478662406, 35.306799254599021 ], [ -120.658190211382333, 35.306677254099199 ], [ -120.658335078667136, 35.306555120948047 ], [ -120.658434277961788, 35.306452054452961 ], [ -120.658556278474705, 35.306330054278718 ], [ -120.658686078829362, 35.306204120640814 ], [ -120.658800411648315, 35.306127853867409 ], [ -120.65897601214094, 35.306078253890057 ], [ -120.659273478917598, 35.305990520846507 ], [ -120.659418611538499, 35.305929453775626 ], [ -120.659586412189398, 35.305853120509035 ], [ -120.659738878492902, 35.305765520539204 ], [ -120.659914478985527, 35.305662453887329 ], [ -120.66004407851716, 35.305589920360482 ], [ -120.660204412297105, 35.30550225387109 ], [ -120.660379878560846, 35.305406921052132 ], [ -120.660555411418756, 35.305342054386799 ] ] ] } },
{ "type": "Feature", "properties": { "nhd_objectid": 30363862, "permanent_identifier": "{6FC9553D-E40B-48CC-A341-D3496F226327}", "gnis_name": null, "nhd_lengthkm": 0.15743996, "reachcode": "18060006027621", "flowdir": 1, "ftype": 460, "fcode": 46003, "feature_type": "Stream/River", "hydro_category": "Intermittent", "innetwork": 1, "mainpath": 0, "visibilityfilter": 0, "globalid": "{68E13AE4-6C09-449A-AD5B-A5E5A392F270}", "clipped_length_m": 180.32076054912454 }, "geometry": { "type": "MultiLineString", "coordinates": [ [ [ -120.660914237436074, 35.306688582591363 ], [ -120.660894956343782, 35.306521489506451 ], [ -120.660894956343782, 35.306295440273907 ], [ -120.660811676176536, 35.30602180204616 ], [ -120.660561832553142, 35.30565298660909 ], [ -120.660550945453096, 35.30512579834334 ] ] ] } }
]
}
