{
  "type": "FeatureCollection",
  "bbox": [-84.05, 10.88, -83.62, 11.10],
  "features": [
    {
      "type": "Feature",
      "properties": {
        "name": "Rio San Juan / Indio Maiz deforestation AOI",
        "bbox": [-84.05, 10.88, -83.62, 11.10],
        "crs": "EPSG:4326"
      },
      "geometry": {
        "type": "Polygon",
        "coordinates": [
          [
            [-84.05, 10.88],
            [-83.62, 10.88],
            [-83.62, 11.10],
            [-84.05, 11.10],
            [-84.05, 10.88]
          ]
        ]
      }
    }
  ]
}
