{
"type": "FeatureCollection",
"name": "gran_chaco_aoi",
"crs": { "type": "name", "properties": { "name": "urn:ogc:def:crs:OGC:1.3:CRS84" } },
"features": [
{ "type": "Feature", "properties": { }, "geometry": { "type": "Polygon", "coordinates": [ [ [ -59.754978876378573, -19.985870706121734 ], [ -59.754978876378573, -19.396532688601638 ], [ -59.177494030280926, -19.396532688601638 ], [ -59.177494030280926, -19.985870706121734 ], [ -59.754978876378573, -19.985870706121734 ] ] ] } },
{ "type": "Feature", "properties": { }, "geometry": { "type": "Polygon", "coordinates": [ [ [ -59.754978876378573, -19.985870706121734 ], [ -59.754978876378573, -19.396532688601638 ], [ -59.177494030280926, -19.396532688601638 ], [ -59.177494030280926, -19.985870706121734 ], [ -59.754978876378573, -19.985870706121734 ] ] ] } }
]
}
